{
    "links": {
        "self": "http://www.neowsapp.com/rest/v1/neo/3063064?api_key=iIulBulltgU6a56xZRHN4H3l9WmuAYTsLGpBGhQ2"
    },
    "id": "3063064",
    "neo_reference_id": "3063064",
    "name": "(2000 WM10)",
    "designation": "2000 WM10",
    "nasa_jpl_url": "http://ssd.jpl.nasa.gov/sbdb.cgi?sstr=3063064",
    "absolute_magnitude_h": 25.8,
    "estimated_diameter": {
        "kilometers": {
            "estimated_diameter_min": 0.0183888672,
            "estimated_diameter_max": 0.0411187571
        },
        "meters": {
            "estimated_diameter_min": 18.388867207,
            "estimated_diameter_max": 41.1187571041
        },
        "miles": {
            "estimated_diameter_min": 0.0114263088,
            "estimated_diameter_max": 0.0255500032
        },
        "feet": {
            "estimated_diameter_min": 60.3309310875,
            "estimated_diameter_max": 134.9040630575
        }
    },
    "is_potentially_hazardous_asteroid": false,
    "close_approach_data": [
        {
            "close_approach_date": "2000-11-24",
            "close_approach_date_full": "2000-Nov-24 09:06",
            "epoch_date_close_approach": 975056760000,
            "relative_velocity": {
                "kilometers_per_second": "6.5642145778",
                "kilometers_per_hour": "23631.1724800483",
                "miles_per_hour": "14683.4915890611"
            },
            "miss_distance": {
                "astronomical": "0.039843499",
                "lunar": "15.499121111",
                "kilometers": "5960502.58374713",
                "miles": "3703684.563405194"
            },
            "orbiting_body": "Earth"
        }
    ],
    "orbital_data": {
        "orbit_id": "12",
        "orbit_determination_date": "2017-04-06 09:16:42",
        "first_observation_date": "2000-11-20",
        "last_observation_date": "2000-12-05",
        "data_arc_in_days": 15,
        "observations_used": 22,
        "orbit_uncertainty": "8",
        "minimum_orbit_intersection": ".038279",
        "jupiter_tisserand_invariant": "3.370",
        "epoch_osculation": "2451873.5",
        "eccentricity": ".5544044193230636",
        "semi_major_axis": "2.298228637082443",
        "inclination": ".7106161566092148",
        "ascending_node_longitude": "97.28953445643464",
        "orbital_period": "1272.58932149712",
        "perihelion_distance": "1.024080524069115",
        "perihelion_argument": "330.9479834071312",
        "aphelion_distance": "3.572376750095771",
        "perihelion_time": "2451877.464848490034",
        "mean_anomaly": "358.8783927129508",
        "mean_motion": ".2828878051377038",
        "equinox": "J2000",
        "orbit_class": {
            "orbit_class_type": "AMO",
            "orbit_class_description": "Near-Earth asteroid orbits similar to that of 1221 Amor",
            "orbit_class_range": "1.017 AU < q (perihelion) < 1.3 AU"
        }
    },
    "is_sentry_object": false
}